H1 CPF  1  DGF 2022 06 23 10  6741 larets     NONE      
H2   304206 5557    27944 2022 06 21 00 00 00 2022 06 28 00 00 00    30 1 1  0 0 0
H5  0.0650
H9
10 0 59752  10800.000000  0      -6820316.526       1705075.001       -683221.145
10 0 59752  10830.000000  0      -6784238.977       1745181.510       -904875.836
10 0 59752  10860.000000  0      -6741108.198       1783344.472      -1125605.890
10 0 59752  10890.000000  0      -6690976.886       1819494.497      -1345185.780
10 0 59752  10920.000000  0      -6633905.210       1853564.509      -1563391.187
10 0 59752  10950.000000  0      -6569960.734       1885489.842      -1779999.233
10 0 59752  10980.000000  0      -6499218.331       1915208.342      -1994788.719
10 0 59752  11010.000000  0      -6421760.094       1942660.461      -2207540.354
10 0 59752  11040.000000  0      -6337675.230       1967789.351      -2418036.991
10 0 59752  11070.000000  0      -6247059.953       1990540.947      -2626063.849
10 0 59752  11100.000000  0      -6150017.367       2010864.057      -2831408.738
10 0 59752  11130.000000  0      -6046657.336       2028710.438      -3033862.284
10 0 59752  11160.000000  0      -5937096.357       2044034.872      -3233218.135
10 0 59752  11190.000000  0      -5821457.415       2056795.242      -3429273.184
10 0 59752  11220.000000  0      -5699869.836       2066952.599      -3621827.770
10 0 59752  11250.000000  0      -5572469.138       2074471.225      -3810685.882
10 0 59752  11280.000000  0      -5439396.868       2079318.696      -3995655.361
10 0 59752  11310.000000  0      -5300800.438       2081465.940      -4176548.093
10 0 59752  11340.000000  0      -5156832.948       2080887.284      -4353180.201
10 0 59752  11370.000000  0      -5007653.012       2077560.506      -4525372.228
10 0 59752  11400.000000  0      -4853424.573       2071466.877      -4692949.314
10 0 59752  11430.000000  0      -4694316.713       2062591.199      -4855741.373
10 0 59752  11460.000000  0      -4530503.460       2050921.839      -5013583.260
10 0 59752  11490.000000  0      -4362163.595       2036450.763      -5166314.929
10 0 59752  11520.000000  0      -4189480.443       2019173.557      -5313781.596
10 0 59752  11550.000000  0      -4012641.672       1999089.454      -5455833.884
10 0 59752  11580.000000  0      -3831839.085       1976201.343      -5592327.973
10 0 59752  11610.000000  0      -3647268.403       1950515.789      -5723125.737
10 0 59752  11640.000000  0      -3459129.053       1922043.036      -5848094.880
10 0 59752  11670.000000  0      -3267623.945       1890797.009      -5967109.066
10 0 59752  11700.000000  0      -3072959.250       1856795.315      -6080048.035
10 0 59752  11730.000000  0      -2875344.175       1820059.236      -6186797.727
10 0 59752  11760.000000  0      -2674990.729       1780613.717      -6287250.385
10 0 59752  11790.000000  0      -2472113.493       1738487.354      -6381304.655
10 0 59752  11820.000000  0      -2266929.385       1693712.370      -6468865.682
10 0 59752  11850.000000  0      -2059657.432       1646324.595      -6549845.190
10 0 59752  11880.000000  0      -1850518.533       1596363.434      -6624161.566
10 0 59752  11910.000000  0      -1639735.232       1543871.837      -6691739.938
10 0 59752  11940.000000  0      -1427531.476       1488896.257      -6752512.245
10 0 59752  11970.000000  0      -1214132.380       1431486.615      -6806417.302
10 0 59752  12000.000000  0       -999763.989       1371696.248      -6853400.849
10 0 59752  12030.000000  0       -784653.038       1309581.863      -6893415.604
10 0 59752  12060.000000  0       -569026.719       1245203.482      -6926421.301
10 0 59752  12090.000000  0       -353112.449       1178624.387      -6952384.729
10 0 59752  12120.000000  0       -137137.633       1109911.058      -6971279.765
10 0 59752  12150.000000  0         78670.571       1039133.107      -6983087.403
10 0 59752  12180.000000  0        294085.489        966363.209      -6987795.775
10 0 59752  12210.000000  0        508881.174        891677.027      -6985400.166
10 0 59752  12240.000000  0        722832.638        815153.134      -6975903.019
10 0 59752  12270.000000  0        935716.095        736872.931      -6959313.924
10 0 59752  12300.000000  0       1147309.183        656920.558      -6935649.612
10 0 59752  12330.000000  0       1357391.202        575382.811      -6904933.934
10 0 59752  12360.000000  0       1565743.331        492349.041      -6867197.845
10 0 59752  12390.000000  0       1772148.862        407911.065      -6822479.367
10 0 59752  12420.000000  0       1976393.417        322163.061      -6770823.561
10 0 59752  12450.000000  0       2178265.170        235201.471      -6712282.487
10 0 59752  12480.000000  0       2377555.074        147124.893      -6646915.156
10 0 59752  12510.000000  0       2574057.073         58033.973      -6574787.473
10 0 59752  12540.000000  0       2767568.321        -31968.711      -6495972.175
10 0 59752  12570.000000  0       2957889.386       -122778.763      -6410548.760
10 0 59752  12600.000000  0       3144824.458       -214290.090      -6318603.409
10 0 59752  12630.000000  0       3328181.545       -306395.018      -6220228.911
10 0 59752  12660.000000  0       3507772.678       -398984.421      -6115524.572
10 0 59752  12690.000000  0       3683414.097       -491947.841      -6004596.124
10 0 59752  12720.000000  0       3854926.450       -585173.619      -5887555.630
10 0 59752  12750.000000  0       4022134.976       -678549.022      -5764521.375
10 0 59752  12780.000000  0       4184869.694       -771960.385      -5635617.762
10 0 59752  12810.000000  0       4342965.578       -865293.240      -5500975.186
10 0 59752  12840.000000  0       4496262.735       -958432.460      -5360729.909
10 0 59752  12870.000000  0       4644606.569      -1051262.393      -5215023.929
10 0 59752  12900.000000  0       4787847.945      -1143667.005      -5064004.843
10 0 59752  12930.000000  0       4925843.345      -1235530.023      -4907825.700
10 0 59752  12960.000000  0       5058455.018      -1326735.073      -4746644.856
10 0 59752  12990.000000  0       5185551.129      -1417165.832      -4580625.814
10 0 59752  13020.000000  0       5307005.894      -1506706.165      -4409937.067
10 0 59752  13050.000000  0       5422699.713      -1595240.275      -4234751.927
10 0 59752  13080.000000  0       5532519.298      -1682652.853      -4055248.357
10 0 59752  13110.000000  0       5636357.794      -1768829.216      -3871608.788
10 0 59752  13140.000000  0       5734114.888      -1853655.461      -3684019.941
10 0 59752  13170.000000  0       5825696.913      -1937018.611      -3492672.633
10 0 59752  13200.000000  0       5911016.953      -2018806.756      -3297761.589
10 0 59752  13230.000000  0       5989994.924      -2098909.210      -3099485.239
10 0 59752  13260.000000  0       6062557.665      -2177216.644      -2898045.520
10 0 59752  13290.000000  0       6128639.007      -2253621.241      -2693647.664
10 0 59752  13320.000000  0       6188179.842      -2328016.834      -2486499.991
10 0 59752  13350.000000  0       6241128.179      -2400299.049      -2276813.690
10 0 59752  13380.000000  0       6287439.196      -2470365.442      -2064802.606
10 0 59752  13410.000000  0       6327075.282      -2538115.644      -1850683.018
10 0 59752  13440.000000  0       6360006.073      -2603451.489      -1634673.413
10 0 59752  13470.000000  0       6386208.475      -2666277.157      -1416994.261
10 0 59752  13500.000000  0       6405666.688      -2726499.301      -1197867.784
10 0 59752  13530.000000  0       6418372.208      -2784027.178       -977517.720
10 0 59752  13560.000000  0       6424323.831      -2838772.778       -756169.096
10 0 59752  13590.000000  0       6423527.642      -2890650.946       -534047.984
10 0 59752  13620.000000  0       6415996.999      -2939579.501       -311381.270
10 0 59752  13650.000000  0       6401752.507      -2985479.356        -88396.413
10 0 59752  13680.000000  0       6380821.987      -3028274.630        134678.790
10 0 59752  13710.000000  0       6353240.434      -3067892.760        357616.446
10 0 59752  13740.000000  0       6319049.970      -3104264.603        580188.805
10 0 59752  13770.000000  0       6278299.782      -3137324.548        802168.505
10 0 59752  13800.000000  0       6231046.057      -3167010.605       1023328.813
10 0 59752  13830.000000  0       6177351.901      -3193264.502       1243443.862
10 0 59752  13860.000000  0       6117287.256      -3216031.773       1462288.891
10 0 59752  13890.000000  0       6050928.799      -3235261.842       1679640.478
10 0 59752  13920.000000  0       5978359.851      -3250908.102       1895276.771
10 0 59752  13950.000000  0       5899670.263      -3262927.990       2108977.717
10 0 59752  13980.000000  0       5814956.310      -3271283.062       2320525.294
10 0 59752  14010.000000  0       5724320.568      -3275939.054       2529703.740
10 0 59752  14040.000000  0       5627871.783      -3276865.945       2736299.777
10 0 59752  14070.000000  0       5525724.734      -3274038.004       2940102.835
10 0 59752  14100.000000  0       5418000.090      -3267433.842       3140905.267
10 0 59752  14130.000000  0       5304824.257      -3257036.453       3338502.558
10 0 59752  14160.000000  0       5186329.232      -3242833.255       3532693.531
10 0 59752  14190.000000  0       5062652.437      -3224816.121       3723280.557
10 0 59752  14220.000000  0       4933936.565      -3202981.410       3910069.749
10 0 59752  14250.000000  0       4800329.400      -3177329.988       4092871.166
10 0 59752  14280.000000  0       4661983.652      -3147867.248       4271499.004
10 0 59752  14310.000000  0       4519056.771      -3114603.124       4445771.785
10 0 59752  14340.000000  0       4371710.759      -3077552.096       4615512.542
10 0 59752  14370.000000  0       4220111.976      -3036733.190       4780548.998
99
